BEIDOU-2 G3             
1 36590U 10024A   26177.75264457 -.00000129  00000+0  00000+0 0  9994
2 36590   4.5387  61.4816 0008099 355.7146 208.3102  1.00271236 58860
BADR-5                  
1 36592U 10025A   26177.67167575  .00000165  00000+0  00000+0 0  9990
2 36592   0.0485 142.2723 0003901  45.7264 359.1260  1.00267357 53315
COMS 1                  
1 36744U 10032A   26177.74396469  .00000045  00000+0  00000+0 0  9998
2 36744   4.8292  75.2461 0011925  12.8575 129.9246  0.99166612 51180
ARABSAT-5A              
1 36745U 10032B   26177.74301133  .00000165  00000+0  00000+0 0  9996
2 36745   0.0704  52.2378 0005642  60.4219 100.1685  1.00271777 58741
ECHOSTAR 15             
1 36792U 10034A   26177.64210777  .00000011  00000+0  00000+0 0  9992
2 36792   0.0110  13.6020 0002227  66.6118 306.8936  1.00272321 58415
BEIDOU-2 IGSO-1         
1 36828U 10036A   26176.90245100 -.00000051  00000+0  00000+0 0  9995
2 36828  54.3048 162.8805 0059011 225.3330 318.2636  1.00269992 58186
NILESAT 201             
1 36830U 10037A   26177.73557815 -.00000046  00000+0  00000+0 0  9994
2 36830   0.0393 138.7114 0005184 341.6639  52.2901  1.00271423 58475
RASCOM-QAF 1R           
1 36831U 10037B   26177.73748483  .00000030  00000+0  00000+0 0  9990
2 36831   0.0208  70.3584 0006585  19.1938  93.6913  1.00272013 58409
AEHF-1 (USA 214)        
1 36868U 10039A   26177.31515652  .00000151  00000+0  00000+0 0  9990
2 36868   8.2431  67.9243 0004515  22.5363 327.4837  1.00266533 53747
XM-5                    
1 37185U 10053A   26177.71413553 -.00000011  00000+0  00000+0 0  9996
2 37185   0.0654 271.5186 0002380 284.8113 220.3967  1.00269780 57577
BSAT-3B                 
1 37207U 10056B   26177.61612492 -.00000339  00000+0  00000+0 0  9999
2 37207   0.0735 244.4919 0001952 279.8012  82.0942  1.00272644 52193
BEIDOU-2 G4             
1 37210U 10057A   26177.62604779 -.00000105  00000+0  00000+0 0  9995
2 37210   3.6706  68.8985 0004796 192.9286  38.2799  1.00271498 57387
SKYTERRA 1              
1 37218U 10061A   26177.64557443 -.00000112  00000+0  00000+0 0  9993
2 37218   5.1449  50.8462 0002437  23.5792 331.4352  1.00273003 57284
HYLAS 1                 
1 37237U 10065A   26177.31177649  .00000095  00000+0  00000+0 0  9997
2 37237   5.6665  72.9116 0001181 331.5345 356.0308  1.00271008  6979
INTELSAT 17 (IS-17)     
1 37238U 10065B   26177.67876023  .00000010  00000+0  00000+0 0  9996
2 37238   0.0103  73.8113 0002444  21.3416 129.9986  1.00271895 53345
BEIDOU-2 IGSO-2         
1 37256U 10068A   26175.67652892 -.00000223  00000+0  00000+0 0  9990
2 37256  47.5326 271.7373 0056042 213.3814 139.3528  1.00281062 56867
EUTELSAT KA-SAT 9A      
1 37258U 10069A   26177.59614948  .00000073  00000+0  00000+0 0  9998
2 37258   0.0602  11.6153 0003754 121.2019   5.5130  1.00270433 44100
HISPASAT 30W-5          
1 37264U 10070A   26177.73098479 -.00000204  00000+0  00000+0 0  9995
2 37264   0.0373 129.6453 0005767 339.4986  38.8529  1.00273156 53282
KOREASAT 6              
1 37265U 10070B   26177.69732213  .00000000  00000+0  00000+0 0  9995
2 37265   0.0268  18.4981 0002733  88.3580 218.8727  1.00270596 56869
BEIDOU-2 IGSO-3         
1 37384U 11013A   26176.54644699 -.00000187  00000+0  00000+0 0  9995
2 37384  62.4191  40.0714 0035057 184.1159 353.6243  1.00266124 55744
INTELSAT 28 (IS-28)     
1 37392U 11016A   26177.73063811 -.00000215  00000+0  00000+0 0  9992
2 37392   1.8307  82.5156 0004026  12.0785  51.5541  1.00271613 53388
YAHSAT 1A               
1 37393U 11016B   26177.67607355  .00000000  00000+0  00000+0 0  9994
2 37393   0.0235  24.7342 0004005  91.6940  94.2434  1.00260921 42505
SBIRS GEO-1 (USA 230)   
1 37481U 11019A   26177.24814126  .00000106  00000+0  00000+0 0  9991
2 37481   4.5553  53.1191 0001915  36.2201 326.1667  1.00272337 55496
TELSTAR 14R             
1 37602U 11021A   26177.58189479 -.00000269  00000+0  00000+0 0  9993
2 37602   0.0425  80.2071 0002413 350.4729 350.5160  1.00271648 55929
GSAT-8                  
1 37605U 11022A   26177.67659355  .00000094  00000+0  00000+0 0  9997
2 37605   2.1554  81.7182 0001639 185.2967 306.4261  1.00273017 53319
ST-2                    
1 37606U 11022B   26177.68309359  .00000000  00000+0  00000+0 0  9992
2 37606   0.0222  10.0431 0001779  90.1860 148.4961  1.00271728 55378
ZHONGXING-10            
1 37677U 11026A   26177.75385791 -.00000178  00000+0  00000+0 0  9993
2 37677   1.0722  84.1100 0003763   5.7929 181.8776  1.00272998 55094
SES-3                   
1 37748U 11035A   26177.64522778 -.00000092  00000+0  00000+0 0  9993
2 37748   1.3511  83.0025 0002515   1.0659 319.9719  1.00273414 54688
KAZSAT-2                
1 37749U 11035B   26177.68274691 -.00000187  00000+0  00000+0 0  9991
2 37749   0.0027 273.9651 0001670 232.4484 100.6806  1.00273453 53492
BEIDOU-2 IGSO-4         
1 37763U 11038A   26176.93636431  .00000029  00000+0  00000+0 0  9995
2 37763  54.6029 165.5946 0159584 231.4886 307.8251  1.00284248 54738
ASTRA 1N                
1 37775U 11041A   26177.66942242  .00000131  00000+0  00000+0 0  9997
2 37775   0.0809  37.3054 0005937  57.5579  80.0998  1.00270377 44629
BSAT-3C (JCSAT-110R)    
1 37776U 11041B   26177.61612492 -.00000339  00000+0  00000+0 0  9995
2 37776   0.0220 322.1758 0000362 163.2243 121.1000  1.00272213 50565
