OBJECT_NAME,OBJECT_ID,EPOCH,MEAN_MOTION,ECCENTRICITY,INCLINATION,RA_OF_ASC_NODE,ARG_OF_PERICENTER,MEAN_ANOMALY,EPHEMERIS_TYPE,CLASSIFICATION_TYPE,NORAD_CAT_ID,ELEMENT_SET_NO,REV_AT_EPOCH,BSTAR,MEAN_MOTION_DOT,MEAN_MOTION_DDOT
BEIDOU-2 G3,2010-024A,2026-06-26T18:03:48.490848,1.00271236,.0008099,4.5387,61.4816,355.7146,208.3102,0,U,36590,999,5886,0,-.129E-5,0
BADR-5,2010-025A,2026-06-26T16:07:12.784800,1.00267357,.0003901,0.0485,142.2723,45.7264,359.1260,0,U,36592,999,5331,0,.165E-5,0
COMS 1,2010-032A,2026-06-26T17:51:18.549216,0.99166612,.0011925,4.8292,75.2461,12.8575,129.9246,0,U,36744,999,5118,0,.45E-6,0
ARABSAT-5A,2010-032B,2026-06-26T17:49:56.178912,1.00271777,.0005642,0.0704,52.2378,60.4219,100.1685,0,U,36745,999,5874,0,.165E-5,0
ECHOSTAR 15,2010-034A,2026-06-26T15:24:38.111328,1.00272321,.0002227,0.0110,13.6020,66.6118,306.8936,0,U,36792,999,5841,0,.11E-6,0
BEIDOU-2 IGSO-1,2010-036A,2026-06-25T21:39:31.766400,1.00269992,.00590118,54.3048,162.8805,225.3330,318.2636,0,U,36828,999,5818,0,-.51E-6,0
NILESAT 201,2010-037A,2026-06-26T17:39:13.952160,1.00271423,.0005184,0.0393,138.7114,341.6639,52.2901,0,U,36830,999,5847,0,-.46E-6,0
RASCOM-QAF 1R,2010-037B,2026-06-26T17:41:58.689312,1.00272013,.0006585,0.0208,70.3584,19.1938,93.6913,0,U,36831,999,5840,0,.3E-6,0
AEHF-1 (USA 214),2010-039A,2026-06-26T07:33:49.523328,1.00266533,.0004515,8.2431,67.9243,22.5363,327.4837,0,U,36868,999,5374,0,.151E-5,0
XM-5,2010-053A,2026-06-26T17:08:21.309792,1.00269780,.000238,0.0654,271.5186,284.8113,220.3967,0,U,37185,999,5757,0,-.11E-6,0
BSAT-3B,2010-056B,2026-06-26T14:47:13.193088,1.00272644,.0001952,0.0735,244.4919,279.8012,82.0942,0,U,37207,999,5219,0,-.339E-5,0
BEIDOU-2 G4,2010-057A,2026-06-26T15:01:30.529056,1.00271498,.0004796,3.6706,68.8985,192.9286,38.2799,0,U,37210,999,5738,0,-.105E-5,0
SKYTERRA 1,2010-061A,2026-06-26T15:29:37.630752,1.00273003,.0002437,5.1449,50.8462,23.5792,331.4352,0,U,37218,999,5728,0,-.112E-5,0
HYLAS 1,2010-065A,2026-06-26T07:28:57.488736,1.00271008,.0001181,5.6665,72.9116,331.5345,356.0308,0,U,37237,999,697,0,.95E-6,0
INTELSAT 17 (IS-17),2010-065B,2026-06-26T16:17:24.883872,1.00271895,.0002444,0.0103,73.8113,21.3416,129.9986,0,U,37238,999,5334,0,.1E-6,0
BEIDOU-2 IGSO-2,2010-068A,2026-06-24T16:14:12.098688,1.00281062,.00560425,47.5326,271.7373,213.3814,139.3528,0,U,37256,999,5686,0,-.223E-5,0
EUTELSAT KA-SAT 9A,2010-069A,2026-06-26T14:18:27.315072,1.00270433,.0003754,0.0602,11.6153,121.2019,5.5130,0,U,37258,999,4410,0,.73E-6,0
HISPASAT 30W-5,2010-070A,2026-06-26T17:32:37.085856,1.00273156,.0005767,0.0373,129.6453,339.4986,38.8529,0,U,37264,999,5328,0,-.204E-5,0
KOREASAT 6,2010-070B,2026-06-26T16:44:08.632032,1.00270596,.0002733,0.0268,18.4981,88.3580,218.8727,0,U,37265,999,5686,0,0,0
BEIDOU-2 IGSO-3,2011-013A,2026-06-25T13:06:53.019936,1.00266124,.00350576,62.4191,40.0714,184.1159,353.6243,0,U,37384,999,5574,0,-.187E-5,0
INTELSAT 28 (IS-28),2011-016A,2026-06-26T17:32:07.132704,1.00271613,.0004026,1.8307,82.5156,12.0785,51.5541,0,U,37392,999,5338,0,-.215E-5,0
YAHSAT 1A,2011-016B,2026-06-26T16:13:32.754720,1.00260921,.0004005,0.0235,24.7342,91.6940,94.2434,0,U,37393,999,4250,0,0,0
SBIRS GEO-1 (USA 230),2011-019A,2026-06-26T05:57:19.404864,1.00272337,.0001915,4.5553,53.1191,36.2201,326.1667,0,U,37481,999,5549,0,.106E-5,0
TELSTAR 14R,2011-021A,2026-06-26T13:57:55.709856,1.00271648,.0002413,0.0425,80.2071,350.4729,350.5160,0,U,37602,999,5592,0,-.269E-5,0
GSAT-8,2011-022A,2026-06-26T16:14:17.682720,1.00273017,.0001639,2.1554,81.7182,185.2967,306.4261,0,U,37605,999,5331,0,.94E-6,0
ST-2,2011-022B,2026-06-26T16:23:39.286176,1.00271728,.0001779,0.0222,10.0431,90.1860,148.4961,0,U,37606,999,5537,0,0,0
ZHONGXING-10,2011-026A,2026-06-26T18:05:33.323424,1.00272998,.0003763,1.0722,84.1100,5.7929,181.8776,0,U,37677,999,5509,0,-.178E-5,0
SES-3,2011-035A,2026-06-26T15:29:07.680192,1.00273414,.0002515,1.3511,83.0025,1.0659,319.9719,0,U,37748,999,5468,0,-.92E-6,0
KAZSAT-2,2011-035B,2026-06-26T16:23:09.333024,1.00273453,.000167,0.0027,273.9651,232.4484,100.6806,0,U,37749,999,5349,0,-.187E-5,0
BEIDOU-2 IGSO-4,2011-038A,2026-06-25T22:28:21.876384,1.00284248,.0159584,54.6029,165.5946,231.4886,307.8251,0,U,37763,999,5473,0,.29E-6,0
ASTRA 1N,2011-041A,2026-06-26T16:03:58.097088,1.00270377,.0005937,0.0809,37.3054,57.5579,80.0998,0,U,37775,999,4462,0,.131E-5,0
BSAT-3C (JCSAT-110R),2011-041B,2026-06-26T14:47:13.193088,1.00272213,.0000362,0.0220,322.1758,163.2243,121.1000,0,U,37776,999,5056,0,-.339E-5,0
